HXMT (HUIYAN)           
1 42758U 17034A   26066.34217453  .00008280  00000+0  41234-3 0  9994
2 42758  43.0153  29.7234 0032682 221.6481 138.1877 15.17423402482183
SAOCOM 1A               
1 43641U 18076A   26066.60015029  .00000556  00000+0  76407-4 0  9996
2 43641  97.8886 254.8019 0001272  85.8369 274.2989 14.82166165401057
H-2A R/B                
1 43682U 18084L   26066.59046045  .00027785  00000+0  66185-3 0  9994
2 43682  98.8727 283.5300 0025609  32.4047 327.8761 15.41237087405459
SAOCOM 1B               
1 46265U 20059A   26065.95626301  .00001349  00000+0  17595-3 0  9996
2 46265  97.8885 253.2654 0001504  81.2285 278.9098 14.82173062298346
CSS (TIANHE)            
1 48274U 21035A   26066.60376234  .00025948  00000+0  30832-3 0  9993
2 48274  41.4662 220.8523 0006959 260.1334  99.8719 15.60534588277284
COSMOS 2550             
1 48865U 21056A   26066.49589363 -.00000194  00000+0 -75534-7 0  9998
2 48865  67.1447  47.5674 0008275 270.6267  89.3939 15.33833543263120
CZ-2C R/B               
1 52794U 22058K   26066.13338958  .00039060  00000+0  57387-3 0  9994
2 52794  50.1900 331.4375 0042249 189.9988 170.0146 15.54005208209733
CZ-2C R/B               
1 54039U 22132E   26066.57757747  .00049183  00000+0  56501-3 0  9994
2 54039  97.2968  69.8304 0020767  98.3512 262.0101 15.61630713190043
GSLV R/B                
1 54149U 22138AN  26066.31400568  .00004362  00000+0  37724-3 0  9996
2 54149  87.3883 167.1579 0022710 154.8959 205.3382 14.96755731183576
XRISM                   
1 57800U 23137A   26066.32929674  .00007898  00000+0  44948-3 0  9991
2 57800  31.0025 298.9308 0008086  14.0760 346.0103 15.11468795137434
ACS3                    
1 59588U 24077B   26066.40979174  .00022817  00000+0  18399-1 0  9996
2 59588  97.2090   8.0342 0058017  82.5796 278.1956 13.89476881 93880
SZ-21 MODULE            
1 66515U 25246C   26066.46287831  .00050102  00000+0  43323-3 0  9996
2 66515  41.4737 217.0662 0001429 294.3949  65.6744 15.68341086 17722
